{"fetched_at":"2026-03-29T16:36:15Z","count":15609,"tles":[{"name":"STARLINK-11499 [DTC]","line1":"1 62279U 24237N   26087.94680652  .00269474  00000+0  20174-2 0  9994","line2":"2 62279  43.0031 301.1857 0005316 274.1914  85.8346 15.71051570 76006","category":"Starlink"}]}