{
  "norad_id": 62279,
  "name": "STARLINK-11499 [DTC]",
  "history": [
    {
      "epoch": "2026-03-28T22:43:24.083328Z",
      "apogee_km": 359.4702317536039,
      "perigee_km": 352.31061379770927,
      "latitude_deg": -9.457464795219337e-06,
      "longitude_deg": 133.97539168143362,
      "height_km": 355.4038168462248,
      "semi_major_axis_km": 6734.027422775656,
      "eccentricity": 0.0005316,
      "inclination_deg": 43.0031,
      "raan_deg": 301.1857,
      "arg_perigee_deg": 274.1914,
      "mean_anomaly_deg": 85.8346,
      "mean_motion_rev_day": 15.7105157
    }
  ]
}